NORAD_CAT_ID,OBJECT_NAME,OBJECT_TYPE,EPOCH,MEAN_MOTION,ECCENTRICITY,INCLINATION,RA_OF_ASC_NODE,ARG_OF_PERICENTER,MEAN_ANOMALY,BSTAR,MEAN_MOTION_DOT,MEAN_MOTION_DDOT,TLE_LINE0,TLE_LINE1,TLE_LINE2,SEMIMAJOR_AXIS,PERIOD,APOGEE,PERIGEE,DECAYED
52477.0,STARLINK-3860,PAYLOAD,2022-05-31 05:45:16,15.73187909,0.0001682,53.2149,143.3898,58.4683,301.6502,0.00010768,0.0001450999999999,0.0,0 STARLINK-3860,1 52477U 22049AC  22151.23978009  .00014510  00000-0  10768-3 0  9997,2 52477  53.2149 143.3898 0001682  58.4683 301.6502 15.73187909  5167,6727.93,91.534,350.926,348.663,0.0
52477.0,STARLINK-3860,PAYLOAD,2022-05-31 14:00:01,15.73220596,0.0002392,53.2146,141.694,19.071,127.9917,-4.2399e-05,-6.574e-05,0.0,0 STARLINK-3860,1 52477U 22049AC  22151.58334491 -.00006574  00000-0 -42399-4 0  9995,2 52477  53.2146 141.6940 0002392  19.0710 127.9917 15.73220596  4131,6727.8359999999975,91.532,351.311,348.092,0.0
52477.0,STARLINK-3860,PAYLOAD,2022-05-31 22:00:00,15.73205395,0.0002133,53.2149,140.0429,21.8742,214.1329,0.00056559,0.00079534,0.0,0 STARLINK-3860,1 52477U 22049AC  22151.91667824  .00079534  00000-0  56559-3 0  9997,2 52477  53.2149 140.0429 0002133  21.8742 214.1329 15.73205395  1300,6727.88,91.533,351.18,348.31,0.0
52477.0,STARLINK-3860,PAYLOAD,2022-06-01 06:00:00,15.732957,0.0002305,53.215,138.3955,18.4294,306.5445,-0.00066843,-0.00093789,0.0,0 STARLINK-3860,1 52477U 22049AC  22152.25001157 -.00093789  00000-0 -66843-3 0  9993,2 52477  53.2150 138.3955 0002305  18.4294 306.5445 15.73295700  4230,6727.621999999999,91.528,351.038,347.93699999999984,0.0
52477.0,STARLINK-3860,PAYLOAD,2022-06-01 20:00:01,15.73189068,0.0002146,53.2155,135.5065,19.8474,10.8539,0.00010322,0.00013883,0.0,0 STARLINK-3860,1 52477U 22049AC  22152.83334491  .00013883  00000-0  10322-3 0  9993,2 52477  53.2155 135.5065 0002146  19.8474  10.8539 15.73189068  4333,6727.926,91.534,351.235,348.348,0.0
52477.0,STARLINK-3860,PAYLOAD,2022-06-03 05:24:49,15.73207235,0.0002427,53.2159,128.6181,11.6683,348.4393,-1.5016e-05,-2.730000000000001e-05,0.0,0 STARLINK-3860,1 52477U 22049AC  22154.22556730 -.00002730  00000-0 -15016-4 0  9997,2 52477  53.2159 128.6181 0002427  11.6683 348.4393 15.73207235  4552,6727.875,91.533,351.372,348.107,0.0
52477.0,STARLINK-3860,PAYLOAD,2022-06-03 09:59:15,15.73214743,0.0002367,53.2161,127.6742,16.0224,344.0871,1.4057e-05,1.353e-05,0.0,0 STARLINK-3860,1 52477U 22049AC  22154.41614982  .00001353  00000-0  14057-4 0  9994,2 52477  53.2161 127.6742 0002367  16.0224 344.0871 15.73214743  5668,6727.853,91.532,351.311,348.126,0.0
52477.0,STARLINK-3860,PAYLOAD,2022-06-04 04:17:00,15.73218189,0.0002415,53.2162,123.9014,26.0058,334.1083,4.2112e-05,5.297e-05,0.0,0 STARLINK-3860,1 52477U 22049AC  22155.17847920  .00005297  00000-0  42112-4 0  9992,2 52477  53.2162 123.9014 0002415  26.0058 334.1083 15.73218189  4707,6727.843000000003,91.532,351.333,348.084,0.0
52477.0,STARLINK-3860,PAYLOAD,2022-06-04 08:51:26,15.7322016,0.0002454,53.2164,122.9585,22.8946,337.2183,4.163600000000001e-05,5.231e-05,0.0,0 STARLINK-3860,1 52477U 22049AC  22155.36906096  .00005231  00000-0  41636-4 0  9991,2 52477  53.2164 122.9585 0002454  22.8946 337.2183 15.73220160  5814,6727.8380000000025,91.532,351.35400000000016,348.052,0.0
52477.0,STARLINK-3860,PAYLOAD,2022-06-05 22:00:00,15.73256412,0.000234,53.2165,115.3009,35.1393,95.0159,-0.00029972,-0.0004258,0.0,0 STARLINK-3860,1 52477U 22049AC  22156.91667824 -.00042580  00000-0 -29972-3 0  9994,2 52477  53.2165 115.3009 0002340  35.1393  95.0159 15.73256412  4976,6727.734,91.53,351.1740000000001,348.025,0.0
52477.0,STARLINK-3860,PAYLOAD,2022-06-06 14:00:01,15.73250959,0.000224,53.2163,112.0026,26.5937,281.4637,-0.00060935,-0.00085473,0.0,0 STARLINK-3860,1 52477U 22049AC  22157.58334491 -.00085473  00000-0 -60935-3 0  9991,2 52477  53.2163 112.0026 0002240  26.5937 281.4637 15.73250959  1300,6727.75,91.53,351.122,348.108,0.0
52477.0,STARLINK-3860,PAYLOAD,2022-06-06 22:00:00,15.73190706,0.00021,53.2164,110.3527,27.1606,9.8559,0.00023491,0.00032463,0.0,0 STARLINK-3860,1 52477U 22049AC  22157.91667824  .00032463  00000-0  23491-3 0  9992,2 52477  53.2164 110.3527 0002100  27.1606   9.8559 15.73190706  5136,6727.922,91.534,351.2,348.374,0.0
52477.0,STARLINK-3860,PAYLOAD,2022-06-07 14:00:01,15.73206637,0.0002107,53.2162,107.0539,20.6254,194.2825,-9.9797e-05,-0.00014608,0.0,0 STARLINK-3860,1 52477U 22049AC  22158.58334491 -.00014608  00000-0 -99797-4 0  9993,2 52477  53.2162 107.0539 0002107  20.6254 194.2825 15.73206637  5231,6727.876,91.533,351.159,348.324,0.0
52477.0,STARLINK-3860,PAYLOAD,2022-06-07 22:00:00,15.73252066,0.0002041,53.2165,105.404,24.6726,279.1545,-0.00058854,-0.00082604,0.0,0 STARLINK-3860,1 52477U 22049AC  22158.91667824 -.00082604  00000-0 -58854-3 0  9998,2 52477  53.2165 105.4040 0002041  24.6726 279.1545 15.73252066  1301,6727.746999999999,91.53,350.985,348.23900000000015,0.0
52477.0,STARLINK-3860,PAYLOAD,2022-06-08 06:00:02,15.73180289,0.0002336,53.2165,103.7563,24.7147,8.1644,0.00037743,0.00052641,0.0,0 STARLINK-3860,1 52477U 22049AC  22159.25002315  .00052641  00000-0  37743-3 0  9994,2 52477  53.2165 103.7563 0002336  24.7147   8.1644 15.73180289  5342,6727.951,91.534,351.38800000000015,348.245,0.0
52477.0,STARLINK-3860,PAYLOAD,2022-06-08 14:00:01,15.72666177,0.0001971,53.2175,102.1046,31.3601,90.371,0.0057033,0.0086827,0.0,0 STARLINK-3860,1 52477U 22049AC  22159.58334491  .00868270  00000-0  57033-2 0  9999,2 52477  53.2175 102.1046 0001971  31.3601  90.3710 15.72666177  5391,6729.418000000002,91.564,352.6090000000001,349.956,0.0
52477.0,STARLINK-3860,PAYLOAD,2022-06-08 22:00:01,15.73192258,0.0002035,53.2163,100.4557,25.7691,184.9048,0.00017822,0.00024457,0.0,0 STARLINK-3860,1 52477U 22049AC  22159.91668981  .00024457  00000-0  17822-3 0  9994,2 52477  53.2163 100.4557 0002035  25.7691 184.9048 15.73192258  5449,6727.917,91.534,351.151,348.413,0.0
52477.0,STARLINK-3860,PAYLOAD,2022-06-09 14:00:01,15.73163104,0.000213,53.2161,97.1565,29.7533,358.7333,0.00026105,0.00036118,0.0,0 STARLINK-3860,1 52477U 22049AC  22160.58334491  .00036118  00000-0  26105-3 0  9996,2 52477  53.2161  97.1565 0002130  29.7533 358.7333 15.73163104  1300,6728.0,91.535,351.298,348.432,0.0
52477.0,STARLINK-3860,PAYLOAD,2022-06-09 22:00:00,15.73219462,0.000213,53.2165,95.507,30.5711,86.8049,-0.00060811,-0.00085187,0.0,0 STARLINK-3860,1 52477U 22049AC  22160.91667824 -.00085187  00000-0 -60811-3 0  9996,2 52477  53.2165  95.5070 0002130  30.5711  86.8049 15.73219462  1307,6727.84,91.532,351.13800000000015,348.272,0.0
52477.0,STARLINK-3860,PAYLOAD,2022-06-10 00:00:00,15.73196327,0.0002199,53.2165,95.0953,28.9359,200.678,-0.00044734,-0.00062932,0.0,0 STARLINK-3860,1 52477U 22049AC  22161.00001157 -.00062932  00000-0 -44734-3 0  9997,2 52477  53.2165  95.0953 0002199  28.9359 200.6780 15.73196327  5616,6727.906,91.533,351.25,348.291,0.0
52477.0,STARLINK-3860,PAYLOAD,2022-06-10 08:00:01,15.73164813,0.0002293,53.2163,93.4463,23.5737,294.9558,0.00039182,0.00054648,0.0,0 STARLINK-3860,1 52477U 22049AC  22161.33334491  .00054648  00000-0  39182-3 0  9997,2 52477  53.2163  93.4463 0002293  23.5737 294.9558 15.73164813  5667,6727.995,91.535,351.403,348.3180000000001,0.0
52477.0,STARLINK-3860,PAYLOAD,2022-06-10 14:00:01,15.73182172,0.0002119,53.2165,92.2075,28.0707,267.1429,0.00031042,0.00043138,0.0,0 STARLINK-3860,1 52477U 22049AC  22161.58334491  .00043138  00000-0  31042-3 0  9993,2 52477  53.2165  92.2075 0002119  28.0707 267.1429 15.73182172  1303,6727.946,91.534,351.237,348.385,0.0
52477.0,STARLINK-3860,PAYLOAD,2022-06-10 22:00:00,15.73263471,0.0002148,53.2166,90.5584,31.6839,352.4667,-0.000691,-0.00096764,0.0,0 STARLINK-3860,1 52477U 22049AC  22161.91667824 -.00096764  00000-0 -69100-3 0  9990,2 52477  53.2166  90.5584 0002148  31.6839 352.4667 15.73263471  1302,6727.714,91.529,351.024,348.134,0.0
52477.0,STARLINK-3860,PAYLOAD,2022-06-11 06:00:00,15.731817,0.000234,53.2163,88.9106,30.6902,82.417,0.00034968,0.00048705,0.0,0 STARLINK-3860,1 52477U 22049AC  22162.25001157  .00048705  00000-0  34968-3 0  9993,2 52477  53.2163  88.9106 0002340  30.6902  82.4170 15.73181700  5817,6727.946999999999,91.534,351.38699999999994,348.23800000000006,0.0
52477.0,STARLINK-3860,PAYLOAD,2022-06-11 14:00:01,15.73163801,0.0002048,53.2165,87.2589,29.6253,172.4213,0.00018226,0.00024996,0.0,0 STARLINK-3860,1 52477U 22049AC  22162.58334491  .00024996  00000-0  18226-3 0  9994,2 52477  53.2165  87.2589 0002048  29.6253 172.4213 15.73163801  5863,6727.998000000001,91.535,351.241,348.485,0.0
52477.0,STARLINK-3860,PAYLOAD,2022-06-11 22:00:00,15.7321646,0.0002015,53.2169,85.61,29.3823,261.5542,-0.00014704,-0.00021221,0.0,0 STARLINK-3860,1 52477U 22049AC  22162.91667824 -.00021221  00000-0 -14704-3 0  9997,2 52477  53.2169  85.6100 0002015  29.3823 261.5542 15.73216460  1302,6727.848000000001,91.532,351.069,348.358,0.0
52477.0,STARLINK-3860,PAYLOAD,2022-06-12 06:00:02,15.73186321,0.000204,53.2173,83.9607,26.536,353.2401,0.00023832,0.00032939,0.0,0 STARLINK-3860,1 52477U 22049AC  22163.25002315  .00032939  00000-0  23832-3 0  9991,2 52477  53.2173  83.9607 0002040  26.5360 353.2401 15.73186321  5975,6727.934,91.534,351.172,348.427,0.0
52477.0,STARLINK-3860,PAYLOAD,2022-06-12 14:00:01,15.73173842,0.0001879,53.217,82.3106,23.5716,85.2925,0.0004547,0.00063609,0.0,0 STARLINK-3860,1 52477U 22049AC  22163.58334491  .00063609  00000-0  45470-3 0  9990,2 52477  53.2170  82.3106 0001879  23.5716  85.2925 15.73173842  6024,6727.97,91.535,351.099,348.571,0.0
52477.0,STARLINK-3860,PAYLOAD,2022-06-12 22:00:00,15.73253566,0.0001908,53.2171,80.6621,21.6562,176.1377,-0.00064424,-0.00090285,0.0,0 STARLINK-3860,1 52477U 22049AC  22163.91667824 -.00090285  00000-0 -64424-3 0  9998,2 52477  53.2171  80.6621 0001908  21.6562 176.1377 15.73253566  1308,6727.7419999999975,91.53,350.891,348.324,0.0
